<?xml version="1.0" encoding="UTF-8"?>
<kml xmlns="http://www.opengis.net/kml/2.2" xmlns:gx="http://www.google.com/kml/ext/2.2" xmlns:kml="http://www.opengis.net/kml/2.2" xmlns:atom="http://www.w3.org/2005/Atom">
<Document>
	<name>Siemensbahn.kmz</name>
	<StyleMap id="m_ylw-pushpin">
		<Pair>
			<key>normal</key>
			<styleUrl>#s_ylw-pushpin0</styleUrl>
		</Pair>
		<Pair>
			<key>highlight</key>
			<styleUrl>#s_ylw-pushpin_hl00</styleUrl>
		</Pair>
	</StyleMap>
	<StyleMap id="m_ylw-pushpin0">
		<Pair>
			<key>normal</key>
			<styleUrl>#s_ylw-pushpin1</styleUrl>
		</Pair>
		<Pair>
			<key>highlight</key>
			<styleUrl>#s_ylw-pushpin_hl0</styleUrl>
		</Pair>
	</StyleMap>
	<StyleMap id="m_ylw-pushpin00">
		<Pair>
			<key>normal</key>
			<styleUrl>#s_ylw-pushpin</styleUrl>
		</Pair>
		<Pair>
			<key>highlight</key>
			<styleUrl>#s_ylw-pushpin_hl</styleUrl>
		</Pair>
	</StyleMap>
	<StyleMap id="msn_blue-pushpin">
		<Pair>
			<key>normal</key>
			<styleUrl>#sn_blue-pushpin0</styleUrl>
		</Pair>
		<Pair>
			<key>highlight</key>
			<styleUrl>#sh_blue-pushpin</styleUrl>
		</Pair>
	</StyleMap>
	<StyleMap id="msn_blue-pushpin0">
		<Pair>
			<key>normal</key>
			<styleUrl>#sn_blue-pushpin</styleUrl>
		</Pair>
		<Pair>
			<key>highlight</key>
			<styleUrl>#sh_blue-pushpin0</styleUrl>
		</Pair>
	</StyleMap>
	<StyleMap id="msn_grn-pushpin0">
		<Pair>
			<key>normal</key>
			<styleUrl>#sn_grn-pushpin000</styleUrl>
		</Pair>
		<Pair>
			<key>highlight</key>
			<styleUrl>#sh_grn-pushpin0</styleUrl>
		</Pair>
	</StyleMap>
	<StyleMap id="msn_grn-pushpin00">
		<Pair>
			<key>normal</key>
			<styleUrl>#sn_grn-pushpin001</styleUrl>
		</Pair>
		<Pair>
			<key>highlight</key>
			<styleUrl>#sh_grn-pushpin011</styleUrl>
		</Pair>
	</StyleMap>
	<StyleMap id="msn_grn-pushpin000">
		<Pair>
			<key>normal</key>
			<styleUrl>#sn_grn-pushpin0</styleUrl>
		</Pair>
		<Pair>
			<key>highlight</key>
			<styleUrl>#sh_grn-pushpin010</styleUrl>
		</Pair>
	</StyleMap>
	<StyleMap id="msn_grn-pushpin001">
		<Pair>
			<key>normal</key>
			<styleUrl>#sn_grn-pushpin00</styleUrl>
		</Pair>
		<Pair>
			<key>highlight</key>
			<styleUrl>#sh_grn-pushpin01</styleUrl>
		</Pair>
	</StyleMap>
	<StyleMap id="msn_red-pushpin">
		<Pair>
			<key>normal</key>
			<styleUrl>#sn_red-pushpin</styleUrl>
		</Pair>
		<Pair>
			<key>highlight</key>
			<styleUrl>#sh_red-pushpin</styleUrl>
		</Pair>
	</StyleMap>
	<StyleMap id="msn_ylw-pushpin">
		<Pair>
			<key>normal</key>
			<styleUrl>#sn_ylw-pushpin</styleUrl>
		</Pair>
		<Pair>
			<key>highlight</key>
			<styleUrl>#sh_ylw-pushpin1</styleUrl>
		</Pair>
	</StyleMap>
	<StyleMap id="msn_ylw-pushpin0">
		<Pair>
			<key>normal</key>
			<styleUrl>#sn_ylw-pushpin0</styleUrl>
		</Pair>
		<Pair>
			<key>highlight</key>
			<styleUrl>#sh_ylw-pushpin</styleUrl>
		</Pair>
	</StyleMap>
	<StyleMap id="msn_ylw-pushpin1">
		<Pair>
			<key>normal</key>
			<styleUrl>#sn_ylw-pushpin1</styleUrl>
		</Pair>
		<Pair>
			<key>highlight</key>
			<styleUrl>#sh_ylw-pushpin0</styleUrl>
		</Pair>
	</StyleMap>
	<Style id="s_ylw-pushpin">
		<IconStyle>
			<scale>1.1</scale>
			<Icon>
				<href>http://maps.google.com/mapfiles/kml/pushpin/red-pushpin.png</href>
			</Icon>
			<hotSpot x="20" y="2" xunits="pixels" yunits="pixels"/>
		</IconStyle>
	</Style>
	<Style id="s_ylw-pushpin0">
		<IconStyle>
			<scale>1.1</scale>
			<Icon>
				<href>http://maps.google.com/mapfiles/kml/pushpin/pink-pushpin.png</href>
			</Icon>
			<hotSpot x="20" y="2" xunits="pixels" yunits="pixels"/>
		</IconStyle>
	</Style>
	<Style id="s_ylw-pushpin1">
		<IconStyle>
			<scale>1.1</scale>
			<Icon>
				<href>http://maps.google.com/mapfiles/kml/pushpin/ylw-pushpin.png</href>
			</Icon>
			<hotSpot x="20" y="2" xunits="pixels" yunits="pixels"/>
		</IconStyle>
		<LineStyle>
			<color>ff00ffff</color>
			<width>3</width>
		</LineStyle>
	</Style>
	<Style id="s_ylw-pushpin_hl">
		<IconStyle>
			<scale>1.3</scale>
			<Icon>
				<href>http://maps.google.com/mapfiles/kml/pushpin/red-pushpin.png</href>
			</Icon>
			<hotSpot x="20" y="2" xunits="pixels" yunits="pixels"/>
		</IconStyle>
	</Style>
	<Style id="s_ylw-pushpin_hl0">
		<IconStyle>
			<scale>1.3</scale>
			<Icon>
				<href>http://maps.google.com/mapfiles/kml/pushpin/ylw-pushpin.png</href>
			</Icon>
			<hotSpot x="20" y="2" xunits="pixels" yunits="pixels"/>
		</IconStyle>
		<LineStyle>
			<color>ff00ffff</color>
			<width>3</width>
		</LineStyle>
	</Style>
	<Style id="s_ylw-pushpin_hl00">
		<IconStyle>
			<scale>1.3</scale>
			<Icon>
				<href>http://maps.google.com/mapfiles/kml/pushpin/pink-pushpin.png</href>
			</Icon>
			<hotSpot x="20" y="2" xunits="pixels" yunits="pixels"/>
		</IconStyle>
	</Style>
	<Style id="sh_blue-pushpin">
		<IconStyle>
			<scale>1.3</scale>
			<Icon>
				<href>http://maps.google.com/mapfiles/kml/pushpin/blue-pushpin.png</href>
			</Icon>
			<hotSpot x="20" y="2" xunits="pixels" yunits="pixels"/>
		</IconStyle>
	</Style>
	<Style id="sh_blue-pushpin0">
		<IconStyle>
			<scale>1.3</scale>
			<Icon>
				<href>http://maps.google.com/mapfiles/kml/pushpin/blue-pushpin.png</href>
			</Icon>
			<hotSpot x="20" y="2" xunits="pixels" yunits="pixels"/>
		</IconStyle>
	</Style>
	<Style id="sh_grn-pushpin0">
		<IconStyle>
			<scale>1.3</scale>
			<Icon>
				<href>http://maps.google.com/mapfiles/kml/pushpin/grn-pushpin.png</href>
			</Icon>
			<hotSpot x="20" y="2" xunits="pixels" yunits="pixels"/>
		</IconStyle>
	</Style>
	<Style id="sh_grn-pushpin01">
		<IconStyle>
			<scale>1.3</scale>
			<Icon>
				<href>http://maps.google.com/mapfiles/kml/pushpin/ylw-pushpin.png</href>
			</Icon>
			<hotSpot x="20" y="2" xunits="pixels" yunits="pixels"/>
		</IconStyle>
	</Style>
	<Style id="sh_grn-pushpin010">
		<IconStyle>
			<scale>1.3</scale>
			<Icon>
				<href>http://maps.google.com/mapfiles/kml/pushpin/grn-pushpin.png</href>
			</Icon>
			<hotSpot x="20" y="2" xunits="pixels" yunits="pixels"/>
		</IconStyle>
	</Style>
	<Style id="sh_grn-pushpin011">
		<IconStyle>
			<scale>1.3</scale>
			<Icon>
				<href>http://maps.google.com/mapfiles/kml/pushpin/ylw-pushpin.png</href>
			</Icon>
			<hotSpot x="20" y="2" xunits="pixels" yunits="pixels"/>
		</IconStyle>
	</Style>
	<Style id="sh_red-pushpin">
		<IconStyle>
			<scale>1.3</scale>
			<Icon>
				<href>http://maps.google.com/mapfiles/kml/pushpin/red-pushpin.png</href>
			</Icon>
			<hotSpot x="20" y="2" xunits="pixels" yunits="pixels"/>
		</IconStyle>
	</Style>
	<Style id="sh_ylw-pushpin">
		<IconStyle>
			<scale>1.3</scale>
			<Icon>
				<href>http://maps.google.com/mapfiles/kml/pushpin/ylw-pushpin.png</href>
			</Icon>
			<hotSpot x="20" y="2" xunits="pixels" yunits="pixels"/>
		</IconStyle>
		<LineStyle>
			<color>ffff0000</color>
			<width>3</width>
		</LineStyle>
	</Style>
	<Style id="sh_ylw-pushpin0">
		<IconStyle>
			<scale>1.3</scale>
			<Icon>
				<href>http://maps.google.com/mapfiles/kml/pushpin/ylw-pushpin.png</href>
			</Icon>
			<hotSpot x="20" y="2" xunits="pixels" yunits="pixels"/>
		</IconStyle>
		<LineStyle>
			<color>ff0000ff</color>
			<width>3</width>
		</LineStyle>
	</Style>
	<Style id="sh_ylw-pushpin1">
		<IconStyle>
			<scale>1.3</scale>
			<Icon>
				<href>http://maps.google.com/mapfiles/kml/pushpin/ylw-pushpin.png</href>
			</Icon>
			<hotSpot x="20" y="2" xunits="pixels" yunits="pixels"/>
		</IconStyle>
		<LineStyle>
			<color>ff00aa00</color>
			<width>3</width>
		</LineStyle>
	</Style>
	<Style id="sn_blue-pushpin">
		<IconStyle>
			<scale>1.1</scale>
			<Icon>
				<href>http://maps.google.com/mapfiles/kml/pushpin/blue-pushpin.png</href>
			</Icon>
			<hotSpot x="20" y="2" xunits="pixels" yunits="pixels"/>
		</IconStyle>
	</Style>
	<Style id="sn_blue-pushpin0">
		<IconStyle>
			<scale>1.1</scale>
			<Icon>
				<href>http://maps.google.com/mapfiles/kml/pushpin/blue-pushpin.png</href>
			</Icon>
			<hotSpot x="20" y="2" xunits="pixels" yunits="pixels"/>
		</IconStyle>
	</Style>
	<Style id="sn_grn-pushpin0">
		<IconStyle>
			<scale>1.1</scale>
			<Icon>
				<href>http://maps.google.com/mapfiles/kml/pushpin/grn-pushpin.png</href>
			</Icon>
			<hotSpot x="20" y="2" xunits="pixels" yunits="pixels"/>
		</IconStyle>
	</Style>
	<Style id="sn_grn-pushpin00">
		<IconStyle>
			<scale>1.1</scale>
			<Icon>
				<href>http://maps.google.com/mapfiles/kml/pushpin/ylw-pushpin.png</href>
			</Icon>
			<hotSpot x="20" y="2" xunits="pixels" yunits="pixels"/>
		</IconStyle>
	</Style>
	<Style id="sn_grn-pushpin000">
		<IconStyle>
			<scale>1.1</scale>
			<Icon>
				<href>http://maps.google.com/mapfiles/kml/pushpin/grn-pushpin.png</href>
			</Icon>
			<hotSpot x="20" y="2" xunits="pixels" yunits="pixels"/>
		</IconStyle>
	</Style>
	<Style id="sn_grn-pushpin001">
		<IconStyle>
			<scale>1.1</scale>
			<Icon>
				<href>http://maps.google.com/mapfiles/kml/pushpin/ylw-pushpin.png</href>
			</Icon>
			<hotSpot x="20" y="2" xunits="pixels" yunits="pixels"/>
		</IconStyle>
	</Style>
	<Style id="sn_red-pushpin">
		<IconStyle>
			<scale>1.1</scale>
			<Icon>
				<href>http://maps.google.com/mapfiles/kml/pushpin/red-pushpin.png</href>
			</Icon>
			<hotSpot x="20" y="2" xunits="pixels" yunits="pixels"/>
		</IconStyle>
	</Style>
	<Style id="sn_ylw-pushpin">
		<IconStyle>
			<scale>1.1</scale>
			<Icon>
				<href>http://maps.google.com/mapfiles/kml/pushpin/ylw-pushpin.png</href>
			</Icon>
			<hotSpot x="20" y="2" xunits="pixels" yunits="pixels"/>
		</IconStyle>
		<LineStyle>
			<color>ff00aa00</color>
			<width>3</width>
		</LineStyle>
	</Style>
	<Style id="sn_ylw-pushpin0">
		<IconStyle>
			<scale>1.1</scale>
			<Icon>
				<href>http://maps.google.com/mapfiles/kml/pushpin/ylw-pushpin.png</href>
			</Icon>
			<hotSpot x="20" y="2" xunits="pixels" yunits="pixels"/>
		</IconStyle>
		<LineStyle>
			<color>ffff0000</color>
			<width>3</width>
		</LineStyle>
	</Style>
	<Style id="sn_ylw-pushpin1">
		<IconStyle>
			<scale>1.1</scale>
			<Icon>
				<href>http://maps.google.com/mapfiles/kml/pushpin/ylw-pushpin.png</href>
			</Icon>
			<hotSpot x="20" y="2" xunits="pixels" yunits="pixels"/>
		</IconStyle>
		<LineStyle>
			<color>ff0000ff</color>
			<width>3</width>
		</LineStyle>
	</Style>
	<Folder>
		<name>Siemensbahn</name>
		<open>1</open>
		<Placemark>
			<name>1 Wasserstadt Oberhavel</name>
			<visibility>0</visibility>
			<LookAt>
				<longitude>13.22874353703947</longitude>
				<latitude>52.55835615447688</latitude>
				<altitude>0</altitude>
				<heading>-0.1368402896299157</heading>
				<tilt>20.1631572990302</tilt>
				<range>519.4407043607134</range>
				<gx:altitudeMode>relativeToSeaFloor</gx:altitudeMode>
			</LookAt>
			<styleUrl>#msn_red-pushpin</styleUrl>
			<Point>
				<gx:drawOrder>1</gx:drawOrder>
				<coordinates>13.23004897628111,52.55894259088932,0</coordinates>
			</Point>
		</Placemark>
		<Placemark>
			<name>1 Hakenfelde</name>
			<LookAt>
				<longitude>13.22414207447828</longitude>
				<latitude>52.56193379411617</latitude>
				<altitude>0</altitude>
				<heading>-0.1411459818088763</heading>
				<tilt>18.09420006942433</tilt>
				<range>2808.181826856905</range>
				<gx:altitudeMode>relativeToSeaFloor</gx:altitudeMode>
			</LookAt>
			<styleUrl>#m_ylw-pushpin00</styleUrl>
			<Point>
				<gx:drawOrder>1</gx:drawOrder>
				<coordinates>13.20861096104261,52.56555750291423,0</coordinates>
			</Point>
		</Placemark>
		<Placemark>
			<name>2 Wasserstadt Oberhavel</name>
			<visibility>0</visibility>
			<LookAt>
				<longitude>13.22673915064721</longitude>
				<latitude>52.55632490562321</latitude>
				<altitude>0</altitude>
				<heading>-0.1386839273814249</heading>
				<tilt>20.491926974007</tilt>
				<range>1491.300948789538</range>
				<gx:altitudeMode>relativeToSeaFloor</gx:altitudeMode>
			</LookAt>
			<styleUrl>#msn_blue-pushpin0</styleUrl>
			<Point>
				<gx:drawOrder>1</gx:drawOrder>
				<coordinates>13.22794930720134,52.55357038810006,0</coordinates>
			</Point>
		</Placemark>
		<Placemark>
			<name>2 Hakenfelde</name>
			<LookAt>
				<longitude>13.20862732094878</longitude>
				<latitude>52.55688777352173</latitude>
				<altitude>0</altitude>
				<heading>-0.1532742558930035</heading>
				<tilt>27.11490536138469</tilt>
				<range>834.080412752141</range>
				<gx:altitudeMode>relativeToSeaFloor</gx:altitudeMode>
			</LookAt>
			<styleUrl>#msn_blue-pushpin</styleUrl>
			<Point>
				<gx:drawOrder>1</gx:drawOrder>
				<coordinates>13.20717995712277,52.55555686471441,0</coordinates>
			</Point>
		</Placemark>
		<Placemark>
			<name>Gartenfeld</name>
			<LookAt>
				<longitude>13.25034962813691</longitude>
				<latitude>52.54683858853927</latitude>
				<altitude>0</altitude>
				<heading>-0.1208530013076203</heading>
				<tilt>25.41304181572172</tilt>
				<range>354.3823852150471</range>
				<gx:altitudeMode>relativeToSeaFloor</gx:altitudeMode>
			</LookAt>
			<styleUrl>#msn_grn-pushpin000</styleUrl>
			<Point>
				<gx:drawOrder>1</gx:drawOrder>
				<coordinates>13.24901491152163,52.54687075667673,0</coordinates>
			</Point>
		</Placemark>
		<Placemark>
			<name>Siemensstadt</name>
			<visibility>0</visibility>
			<LookAt>
				<longitude>13.26416118202391</longitude>
				<latitude>52.53959768182693</latitude>
				<altitude>0</altitude>
				<heading>-0.1092735352415078</heading>
				<tilt>30.00216237913985</tilt>
				<range>481.432569053817</range>
				<gx:altitudeMode>relativeToSeaFloor</gx:altitudeMode>
			</LookAt>
			<styleUrl>#msn_grn-pushpin0</styleUrl>
			<Point>
				<gx:drawOrder>1</gx:drawOrder>
				<coordinates>13.26362176308497,52.53925462121085,0</coordinates>
			</Point>
		</Placemark>
		<Placemark>
			<name>Wernerwerk</name>
			<visibility>0</visibility>
			<LookAt>
				<longitude>13.27633646814355</longitude>
				<latitude>52.53507443855087</latitude>
				<altitude>0</altitude>
				<heading>-0.1000665292150085</heading>
				<tilt>30.00211023167799</tilt>
				<range>469.8200669114511</range>
				<gx:altitudeMode>relativeToSeaFloor</gx:altitudeMode>
			</LookAt>
			<styleUrl>#msn_grn-pushpin000</styleUrl>
			<Point>
				<gx:drawOrder>1</gx:drawOrder>
				<coordinates>13.27607748310253,52.53448256928447,0</coordinates>
			</Point>
		</Placemark>
		<Placemark>
			<name>Jungfernheide</name>
			<LookAt>
				<longitude>13.30253456518675</longitude>
				<latitude>52.53141416383335</latitude>
				<altitude>0</altitude>
				<heading>3.435528667203601</heading>
				<tilt>19.24181189675066</tilt>
				<range>1583.913215814909</range>
				<gx:altitudeMode>relativeToSeaFloor</gx:altitudeMode>
			</LookAt>
			<styleUrl>#msn_grn-pushpin001</styleUrl>
			<Point>
				<gx:drawOrder>1</gx:drawOrder>
				<coordinates>13.30061464178653,52.53060262555352,0</coordinates>
			</Point>
		</Placemark>
		<Placemark>
			<name>Perleberger Brücke</name>
			<visibility>0</visibility>
			<LookAt>
				<longitude>13.35949857837064</longitude>
				<latitude>52.53610109156236</latitude>
				<altitude>0</altitude>
				<heading>-0.03415253519941924</heading>
				<tilt>26.16463670759261</tilt>
				<range>342.8233369216473</range>
				<gx:altitudeMode>relativeToSeaFloor</gx:altitudeMode>
			</LookAt>
			<styleUrl>#msn_grn-pushpin00</styleUrl>
			<Point>
				<gx:drawOrder>1</gx:drawOrder>
				<coordinates>13.35928996792341,52.53619595279846,0</coordinates>
			</Point>
		</Placemark>
		<Placemark>
			<name>Hauptbahnhof</name>
			<LookAt>
				<longitude>13.37034898625168</longitude>
				<latitude>52.52548544552148</latitude>
				<altitude>0</altitude>
				<heading>-0.02499167718979007</heading>
				<tilt>31.7871361624412</tilt>
				<range>258.7872721393455</range>
				<gx:altitudeMode>relativeToSeaFloor</gx:altitudeMode>
			</LookAt>
			<styleUrl>#msn_grn-pushpin001</styleUrl>
			<Point>
				<gx:drawOrder>1</gx:drawOrder>
				<coordinates>13.37064163864285,52.52509594115562,0</coordinates>
			</Point>
		</Placemark>
		<Placemark>
			<name>Siemensbahn</name>
			<styleUrl>#msn_ylw-pushpin</styleUrl>
			<LineString>
				<tessellate>1</tessellate>
				<coordinates>
					13.30056163313374,52.53057933181893,0 13.29335761616937,52.52952713516401,0 13.28778639004052,52.52931976042417,0 13.28489376623977,52.52889616170197,0 13.28261222113009,52.52876800639192,0 13.28095710109501,52.52932572586591,0 13.27919405658351,52.53036576721701,0 13.27681416324353,52.53237582280252,0 13.27613115532191,52.53338576836823,0 13.27616169518307,52.53518593782006,0 13.27588349269682,52.53646878046619,0 13.27524474303256,52.53744550383814,0 13.27363819088318,52.53837839916382,0 13.27156288635236,52.53878131158019,0 13.26678471562298,52.53883936642621,0 13.26365566805095,52.53926363518092,0 13.26188022236192,52.53998190058281,0 13.26037856867964,52.54080817209682,0 13.24866520530422,52.54705165207906,0 
				</coordinates>
			</LineString>
		</Placemark>
		<Placemark>
			<name>Variant 1</name>
			<styleUrl>#msn_ylw-pushpin1</styleUrl>
			<LineString>
				<tessellate>1</tessellate>
				<coordinates>
					13.24867943043104,52.54705476039146,0 13.23847930739811,52.55259462212522,0 13.23680502895306,52.55364950390333,0 13.23216729990097,52.5575839805356,0 13.23004534573855,52.55893871637467,0 13.22412913948824,52.56230059191634,0 13.22222751462861,52.56341103483028,0 13.21987959036911,52.56412907297811,0 13.2109300162825,52.56514753882858,0 13.20862798645757,52.56556706670367,0 
				</coordinates>
			</LineString>
		</Placemark>
		<Placemark>
			<name>Variant 2</name>
			<styleUrl>#msn_ylw-pushpin0</styleUrl>
			<LineString>
				<tessellate>1</tessellate>
				<coordinates>
					13.2486887454853,52.5470488198417,0 13.24010991864284,52.55162061925189,0 13.23505818328313,52.55316531358309,0 13.22797507903318,52.55360684343787,0 13.21582758363756,52.55505329978009,0 13.21159902127156,52.55493268595332,0 13.20865651273735,52.55548778250593,0 13.20721007913868,52.55556929171259,0 
				</coordinates>
			</LineString>
		</Placemark>
		<Placemark>
			<name>Neues Gartenfeld Ost</name>
			<visibility>0</visibility>
			<LookAt>
				<longitude>13.24247922335642</longitude>
				<latitude>52.55059488717306</latitude>
				<altitude>0</altitude>
				<heading>3.334360541164374</heading>
				<tilt>27.31108628910496</tilt>
				<range>1012.485295881125</range>
				<gx:altitudeMode>relativeToSeaFloor</gx:altitudeMode>
			</LookAt>
			<styleUrl>#m_ylw-pushpin</styleUrl>
			<Point>
				<gx:drawOrder>1</gx:drawOrder>
				<coordinates>13.24462814403254,52.55035730518911,0</coordinates>
			</Point>
		</Placemark>
		<Placemark>
			<name>Neues Gartenfeld West</name>
			<visibility>0</visibility>
			<LookAt>
				<longitude>13.24247922335642</longitude>
				<latitude>52.55059488717306</latitude>
				<altitude>0</altitude>
				<heading>3.334360541164374</heading>
				<tilt>27.31108628910496</tilt>
				<range>1012.485295881125</range>
				<gx:altitudeMode>relativeToSeaFloor</gx:altitudeMode>
			</LookAt>
			<styleUrl>#m_ylw-pushpin</styleUrl>
			<Point>
				<gx:drawOrder>1</gx:drawOrder>
				<coordinates>13.2395870201569,52.55174800098751,0</coordinates>
			</Point>
		</Placemark>
		<Placemark>
			<name>Base Case</name>
			<styleUrl>#m_ylw-pushpin0</styleUrl>
			<LineString>
				<tessellate>1</tessellate>
				<coordinates>
					13.37071564447966,52.5250794802562,0 13.35992622655152,52.53530304526849,0 13.35800969313506,52.53650668476009,0 13.3563849309722,52.53701274789584,0 13.35265542112288,52.53700640159563,0 13.34805227622836,52.53672694446653,0 13.32910148979462,52.53440344509668,0 13.3006386726886,52.53060057808347,0 
				</coordinates>
			</LineString>
		</Placemark>
		<atom:link rel="app" href="https://www.google.com/earth/about/versions/#earth-pro" title="Google Earth Pro 7.3.6.10441"></atom:link>
	</Folder>
</Document>
</kml>
